start=new Date('2023-03-01T00:00:00.000Z').valueOf();
sats=[{"BSTAR":"0.00000114180000","EPHEMERIS_TYPE":"0","ECCENTRICITY":"0.00019660","FILE":"3847656","MEAN_ANOMALY":"242.6856","APOAPSIS":"541.066","ARG_OF_PERICENTER":"117.4336","MEAN_MOTION_DDOT":"0.0000000000000","PERIAPSIS":"538.346","CLASSIFICATION_TYPE":"U","CENTER_NAME":"EARTH","RCS_SIZE":"LARGE","SEMIMAJOR_AXIS":"6917.841","MEAN_MOTION":"15.08852867","ELEMENT_SET_NO":"999","TLE_LINE2":"2 53732  53.2187 174.1777 0001966 117.4336 242.6856 15.08852867 27753","OBJECT_NAME":"STARLINK-4661","DECAY_DATE":null,"REV_AT_EPOCH":"2775","TLE_LINE1":"1 53732U 22107AJ  23059.81234049 -.00000270  00000-0  11418-5 0  9992","LAUNCH_DATE":"2022-09-05","MEAN_MOTION_DOT":"-0.00000270","TIME_SYSTEM":"UTC","GP_ID":"227269764","OBJECT_TYPE":"PAYLOAD","PERIOD":"95.437","SITE":"AFETR","RA_OF_ASC_NODE":"174.1777","INCLINATION":"53.2187","REF_FRAME":"TEME","MEAN_ELEMENT_THEORY":"SGP4","EPOCH":"2023-02-28T19:29:46.218336","OBJECT_ID":"2022-107AJ","COUNTRY_CODE":"US","NORAD_CAT_ID":"53732"},{"RCS_SIZE":"LARGE","CENTER_NAME":"EARTH","CLASSIFICATION_TYPE":"U","PERIAPSIS":"539.089","MEAN_MOTION_DDOT":"0.0000000000000","ARG_OF_PERICENTER":"104.1559","APOAPSIS":"540.390","MEAN_ANOMALY":"255.9538","FILE":"3847656","ECCENTRICITY":"0.00009400","EPHEMERIS_TYPE":"0","BSTAR":"0.00223690000000","NORAD_CAT_ID":"53733","COUNTRY_CODE":"US","OBJECT_ID":"2022-107AK","EPOCH":"2023-02-28T19:51:01.745856","MEAN_ELEMENT_THEORY":"SGP4","REF_FRAME":"TEME","INCLINATION":"53.2170","RA_OF_ASC_NODE":"174.2702","SITE":"AFETR","PERIOD":"95.437","GP_ID":"227270016","OBJECT_TYPE":"PAYLOAD","MEAN_MOTION_DOT":"0.00035494","TIME_SYSTEM":"UTC","LAUNCH_DATE":"2022-09-05","TLE_LINE1":"1 53733U 22107AK  23059.82710354  .00035494  00000-0  22369-2 0  9991","OBJECT_NAME":"STARLINK-4574","DECAY_DATE":null,"REV_AT_EPOCH":"2778","TLE_LINE2":"2 53733  53.2170 174.2702 0000940 104.1559 255.9538 15.08841915 27785","ELEMENT_SET_NO":"999","MEAN_MOTION":"15.08841915","SEMIMAJOR_AXIS":"6917.875"},{"SITE":"AFETR","PERIOD":"95.437","GP_ID":"227270766","OBJECT_TYPE":"PAYLOAD","MEAN_ELEMENT_THEORY":"SGP4","REF_FRAME":"TEME","INCLINATION":"53.2185","RA_OF_ASC_NODE":"174.5064","EPOCH":"2023-02-28T18:01:05.737440","NORAD_CAT_ID":"53734","COUNTRY_CODE":"US","OBJECT_ID":"2022-107AL","MEAN_MOTION":"15.08843376","SEMIMAJOR_AXIS":"6917.870","TLE_LINE2":"2 53734  53.2185 174.5064 0001100  88.2335 271.8783 15.08843376 27770","ELEMENT_SET_NO":"999","TLE_LINE1":"1 53734U 22107AL  23059.75076085 -.00002186  00000-0 -11930-3 0  9997","REV_AT_EPOCH":"2777","DECAY_DATE":null,"OBJECT_NAME":"STARLINK-4616","TIME_SYSTEM":"UTC","MEAN_MOTION_DOT":"-0.00002186","LAUNCH_DATE":"2022-09-05","MEAN_MOTION_DDOT":"0.0000000000000","ARG_OF_PERICENTER":"88.2335","APOAPSIS":"540.496","CLASSIFICATION_TYPE":"U","PERIAPSIS":"538.974","RCS_SIZE":"LARGE","CENTER_NAME":"EARTH","EPHEMERIS_TYPE":"0","BSTAR":"-0.00011930000000","ECCENTRICITY":"0.00011000","MEAN_ANOMALY":"271.8783","FILE":"3847656"},{"MEAN_MOTION_DDOT":"0.0000000000000","ARG_OF_PERICENTER":"69.7325","APOAPSIS":"540.563","CLASSIFICATION_TYPE":"U","PERIAPSIS":"538.954","RCS_SIZE":"LARGE","CENTER_NAME":"EARTH","EPHEMERIS_TYPE":"0","BSTAR":"0.00194820000000","ECCENTRICITY":"0.00011630","MEAN_ANOMALY":"290.3792","FILE":"3847656","SITE":"AFETR","PERIOD":"95.438","GP_ID":"227269015","OBJECT_TYPE":"PAYLOAD","MEAN_ELEMENT_THEORY":"SGP4","REF_FRAME":"TEME","INCLINATION":"53.2160","RA_OF_ASC_NODE":"184.6191","EPOCH":"2023-02-28T15:45:51.802848","NORAD_CAT_ID":"53735","COUNTRY_CODE":"US","OBJECT_ID":"2022-107AM","MEAN_MOTION":"15.08835742","SEMIMAJOR_AXIS":"6917.893","TLE_LINE2":"2 53735  53.2160 184.6191 0001163  69.7325 290.3792 15.08835742 27627","ELEMENT_SET_NO":"999","TLE_LINE1":"1 53735U 22107AM  23059.65684957  .00030850  00000-0  19482-2 0  9996","OBJECT_NAME":"STARLINK-4618","DECAY_DATE":null,"REV_AT_EPOCH":"2762","TIME_SYSTEM":"UTC","MEAN_MOTION_DOT":"0.00030850","LAUNCH_DATE":"2022-09-05"},{"NORAD_CAT_ID":"53736","OBJECT_ID":"2022-107AN","COUNTRY_CODE":"US","EPOCH":"2023-02-28T14:59:33.857088","INCLINATION":"53.2161","REF_FRAME":"TEME","MEAN_ELEMENT_THEORY":"SGP4","RA_OF_ASC_NODE":"175.1428","PERIOD":"95.439","SITE":"AFETR","GP_ID":"227269265","OBJECT_TYPE":"PAYLOAD","LAUNCH_DATE":"2022-09-05","TIME_SYSTEM":"UTC","MEAN_MOTION_DOT":"-0.00000240","TLE_LINE1":"1 53736U 22107AN  23059.62469742 -.00000240  00000-0  29779-5 0  9991","OBJECT_NAME":"STARLINK-4652","DECAY_DATE":null,"REV_AT_EPOCH":"2775","TLE_LINE2":"2 53736  53.2161 175.1428 0001023 101.6686 258.4421 15.08820816 27752","ELEMENT_SET_NO":"999","MEAN_MOTION":"15.08820816","SEMIMAJOR_AXIS":"6917.939","RCS_SIZE":"LARGE","CENTER_NAME":"EARTH","CLASSIFICATION_TYPE":"U","PERIAPSIS":"539.096","ARG_OF_PERICENTER":"101.6686","MEAN_MOTION_DDOT":"0.0000000000000","APOAPSIS":"540.512","MEAN_ANOMALY":"258.4421","FILE":"3847656","ECCENTRICITY":"0.00010230","EPHEMERIS_TYPE":"0","BSTAR":"0.00000297790000"},{"EPHEMERIS_TYPE":"0","BSTAR":"0.00122200000000","ECCENTRICITY":"0.00013350","MEAN_ANOMALY":"281.9603","FILE":"3847656","MEAN_MOTION_DDOT":"0.0000000000000","ARG_OF_PERICENTER":"78.1538","APOAPSIS":"540.631","CLASSIFICATION_TYPE":"U","PERIAPSIS":"538.784","RCS_SIZE":"LARGE","CENTER_NAME":"EARTH","MEAN_MOTION":"15.08852443","SEMIMAJOR_AXIS":"6917.842","TLE_LINE2":"2 53737  53.2156 183.7498 0001335  78.1538 281.9603 15.08852443 27809","ELEMENT_SET_NO":"999","TLE_LINE1":"1 53737U 22107AP  23059.85924374  .00019220  00000-0  12220-2 0  9991","REV_AT_EPOCH":"2780","DECAY_DATE":null,"OBJECT_NAME":"STARLINK-4646","TIME_SYSTEM":"UTC","MEAN_MOTION_DOT":"0.00019220","LAUNCH_DATE":"2022-09-05","SITE":"AFETR","PERIOD":"95.437","GP_ID":"227270516","OBJECT_TYPE":"PAYLOAD","MEAN_ELEMENT_THEORY":"SGP4","REF_FRAME":"TEME","INCLINATION":"53.2156","RA_OF_ASC_NODE":"183.7498","EPOCH":"2023-02-28T20:37:18.659136","NORAD_CAT_ID":"53737","COUNTRY_CODE":"US","OBJECT_ID":"2022-107AP"},{"CENTER_NAME":"EARTH","RCS_SIZE":"LARGE","CLASSIFICATION_TYPE":"U","PERIAPSIS":"539.029","MEAN_MOTION_DDOT":"0.0000000000000","ARG_OF_PERICENTER":"91.7176","APOAPSIS":"540.492","MEAN_ANOMALY":"268.3938","FILE":"3847542","ECCENTRICITY":"0.00010570","EPHEMERIS_TYPE":"0","BSTAR":"-0.00017385000000","NORAD_CAT_ID":"53738","COUNTRY_CODE":"US","OBJECT_ID":"2022-107AQ","EPOCH":"2023-02-28T14:05:09.841344","MEAN_ELEMENT_THEORY":"SGP4","REF_FRAME":"TEME","INCLINATION":"53.2165","RA_OF_ASC_NODE":"184.8929","SITE":"AFETR","PERIOD":"95.438","GP_ID":"227240384","OBJECT_TYPE":"PAYLOAD","MEAN_MOTION_DOT":"-0.00003053","TIME_SYSTEM":"UTC","LAUNCH_DATE":"2022-09-05","TLE_LINE1":"1 53738U 22107AQ  23059.58691946 -.00003053  00000-0 -17385-3 0  9995","REV_AT_EPOCH":"2761","DECAY_DATE":null,"OBJECT_NAME":"STARLINK-4662","TLE_LINE2":"2 53738  53.2165 184.8929 0001057  91.7176 268.3938 15.08835006 27616","ELEMENT_SET_NO":"999","MEAN_MOTION":"15.08835006","SEMIMAJOR_AXIS":"6917.896"},{"ECCENTRICITY":"0.00018650","FILE":"3847656","MEAN_ANOMALY":"300.4868","BSTAR":"0.00199100000000","EPHEMERIS_TYPE":"0","CENTER_NAME":"EARTH","RCS_SIZE":"LARGE","APOAPSIS":"540.948","ARG_OF_PERICENTER":"59.6308","MEAN_MOTION_DDOT":"0.0000000000000","PERIAPSIS":"538.368","CLASSIFICATION_TYPE":"U","DECAY_DATE":null,"OBJECT_NAME":"STARLINK-4607","REV_AT_EPOCH":"2780","TLE_LINE1":"1 53740U 22107AS  23059.86292821  .00031566  00000-0  19910-2 0  9991","LAUNCH_DATE":"2022-09-05","TIME_SYSTEM":"UTC","MEAN_MOTION_DOT":"0.00031566","SEMIMAJOR_AXIS":"6917.793","MEAN_MOTION":"15.08868682","ELEMENT_SET_NO":"999","TLE_LINE2":"2 53740  53.2157 183.7716 0001865  59.6308 300.4868 15.08868682 27806","EPOCH":"2023-02-28T20:42:36.997344","OBJECT_ID":"2022-107AS","COUNTRY_CODE":"US","NORAD_CAT_ID":"53740","OBJECT_TYPE":"PAYLOAD","GP_ID":"227269515","PERIOD":"95.436","SITE":"AFETR","RA_OF_ASC_NODE":"183.7716","INCLINATION":"53.2157","MEAN_ELEMENT_THEORY":"SGP4","REF_FRAME":"TEME"},{"FILE":"3847587","MEAN_ANOMALY":"277.0181","ECCENTRICITY":"0.00013970","BSTAR":"0.00006079500000","EPHEMERIS_TYPE":"0","CENTER_NAME":"EARTH","RCS_SIZE":"LARGE","PERIAPSIS":"538.753","CLASSIFICATION_TYPE":"U","APOAPSIS":"540.686","MEAN_MOTION_DDOT":"0.0000000000000","ARG_OF_PERICENTER":"83.0970","TIME_SYSTEM":"UTC","MEAN_MOTION_DOT":"0.00000680","LAUNCH_DATE":"2022-09-05","OBJECT_NAME":"STARLINK-4614","DECAY_DATE":null,"REV_AT_EPOCH":"2719","TLE_LINE1":"1 53741U 22107AT  23059.57637164  .00000680  00000-0  60795-4 0  9995","ELEMENT_SET_NO":"999","TLE_LINE2":"2 53741  53.2175 169.9364 0001397  83.0970 277.0181 15.08848430 27196","SEMIMAJOR_AXIS":"6917.855","MEAN_MOTION":"15.08848430","COUNTRY_CODE":"US","OBJECT_ID":"2022-107AT","NORAD_CAT_ID":"53741","EPOCH":"2023-02-28T13:49:58.509696","RA_OF_ASC_NODE":"169.9364","REF_FRAME":"TEME","MEAN_ELEMENT_THEORY":"SGP4","INCLINATION":"53.2175","GP_ID":"227242851","OBJECT_TYPE":"PAYLOAD","SITE":"AFETR","PERIOD":"95.437"},{"ECCENTRICITY":"0.00012990","MEAN_ANOMALY":"292.0969","FILE":"3847837","EPHEMERIS_TYPE":"0","BSTAR":"0.00203400000000","RCS_SIZE":"LARGE","CENTER_NAME":"EARTH","MEAN_MOTION_DDOT":"0.0000000000000","ARG_OF_PERICENTER":"68.0161","APOAPSIS":"540.583","CLASSIFICATION_TYPE":"U","PERIAPSIS":"538.786","TLE_LINE1":"1 53742U 22107AU  23059.86661451  .00032249  00000-0  20340-2 0  9990","DECAY_DATE":null,"OBJECT_NAME":"STARLINK-4637","REV_AT_EPOCH":"2702","TIME_SYSTEM":"UTC","MEAN_MOTION_DOT":"0.00032249","LAUNCH_DATE":"2022-09-05","MEAN_MOTION":"15.08859936","SEMIMAJOR_AXIS":"6917.819","TLE_LINE2":"2 53742  53.2163 183.7908 0001299  68.0161 292.0969 15.08859936 27024","ELEMENT_SET_NO":"999","EPOCH":"2023-02-28T20:47:55.493664","NORAD_CAT_ID":"53742","COUNTRY_CODE":"US","OBJECT_ID":"2022-107AU","SITE":"AFETR","PERIOD":"95.436","GP_ID":"227275264","OBJECT_TYPE":"PAYLOAD","REF_FRAME":"TEME","MEAN_ELEMENT_THEORY":"SGP4","INCLINATION":"53.2163","RA_OF_ASC_NODE":"183.7908"}];
